CCSDS_OMM_VERS = 2.0
CREATION_DATE  = 
ORIGINATOR     = 

OBJECT_NAME    = ATLAS CENTAUR R/B
OBJECT_ID      = 1972-065B
CENTER_NAME    = EARTH
REF_FRAME      = TEME
TIME_SYSTEM    = UTC
MEAN_ELEMENT_THEORY = SGP/SGP4

EPOCH          = 2026-02-17T08:31:57.023904
MEAN_MOTION    = 14.77625374
ECCENTRICITY   = .0034016
INCLINATION    = 35.0017
RA_OF_ASC_NODE = 64.9115
ARG_OF_PERICENTER = 200.0912
MEAN_ANOMALY   = 159.8450

EPHEMERIS_TYPE = 0
CLASSIFICATION_TYPE = U
NORAD_CAT_ID   = 6155
ELEMENT_SET_NO = 999
REV_AT_EPOCH   = 83825
BSTAR          = .19588E-3
MEAN_MOTION_DOT = .1415E-4
MEAN_MOTION_DDOT = 0

CCSDS_OMM_VERS = 2.0
CREATION_DATE  = 
ORIGINATOR     = 

OBJECT_NAME    = SL-8 R/B
OBJECT_ID      = 1975-112B
CENTER_NAME    = EARTH
REF_FRAME      = TEME
TIME_SYSTEM    = UTC
MEAN_ELEMENT_THEORY = SGP/SGP4

EPOCH          = 2026-02-17T11:16:40.351008
MEAN_MOTION    = 14.38192702
ECCENTRICITY   = .0015037
INCLINATION    = 74.0592
RA_OF_ASC_NODE = 56.1088
ARG_OF_PERICENTER = 156.9812
MEAN_ANOMALY   = 203.2019

EPHEMERIS_TYPE = 0
CLASSIFICATION_TYPE = U
NORAD_CAT_ID   = 8459
ELEMENT_SET_NO = 999
REV_AT_EPOCH   = 62896
BSTAR          = .66349E-4
MEAN_MOTION_DOT = .176E-5
MEAN_MOTION_DDOT = 0

CCSDS_OMM_VERS = 2.0
CREATION_DATE  = 
ORIGINATOR     = 

OBJECT_NAME    = SL-3 R/B
OBJECT_ID      = 1977-057B
CENTER_NAME    = EARTH
REF_FRAME      = TEME
TIME_SYSTEM    = UTC
MEAN_ELEMENT_THEORY = SGP/SGP4

EPOCH          = 2026-02-17T10:46:49.927008
MEAN_MOTION    = 15.44891025
ECCENTRICITY   = .0007365
INCLINATION    = 97.5736
RA_OF_ASC_NODE = 219.4925
ARG_OF_PERICENTER = 5.2844
MEAN_ANOMALY   = 354.8480

EPHEMERIS_TYPE = 0
CLASSIFICATION_TYPE = U
NORAD_CAT_ID   = 10114
ELEMENT_SET_NO = 999
REV_AT_EPOCH   = 66520
BSTAR          = .2965E-3
MEAN_MOTION_DOT = .13854E-3
MEAN_MOTION_DDOT = 0

CCSDS_OMM_VERS = 2.0
CREATION_DATE  = 
ORIGINATOR     = 

OBJECT_NAME    = SEASAT 1
OBJECT_ID      = 1978-064A
CENTER_NAME    = EARTH
REF_FRAME      = TEME
TIME_SYSTEM    = UTC
MEAN_ELEMENT_THEORY = SGP/SGP4

EPOCH          = 2026-02-17T00:30:15.849792
MEAN_MOTION    = 14.46143736
ECCENTRICITY   = .0001771
INCLINATION    = 108.0157
RA_OF_ASC_NODE = 82.1251
ARG_OF_PERICENTER = 291.9576
MEAN_ANOMALY   = 68.1381

EPHEMERIS_TYPE = 0
CLASSIFICATION_TYPE = U
NORAD_CAT_ID   = 10967
ELEMENT_SET_NO = 999
REV_AT_EPOCH   = 50352
BSTAR          = .12101384E-3
MEAN_MOTION_DOT = .295E-5
MEAN_MOTION_DDOT = 0

CCSDS_OMM_VERS = 2.0
CREATION_DATE  = 
ORIGINATOR     = 

OBJECT_NAME    = SL-14 R/B
OBJECT_ID      = 1979-011B
CENTER_NAME    = EARTH
REF_FRAME      = TEME
TIME_SYSTEM    = UTC
MEAN_ELEMENT_THEORY = SGP/SGP4

EPOCH          = 2026-02-17T06:11:39.851232
MEAN_MOTION    = 14.91883434
ECCENTRICITY   = .0017447
INCLINATION    = 82.5239
RA_OF_ASC_NODE = 115.9592
ARG_OF_PERICENTER = 123.1533
MEAN_ANOMALY   = 237.1364

EPHEMERIS_TYPE = 0
CLASSIFICATION_TYPE = U
NORAD_CAT_ID   = 11267
ELEMENT_SET_NO = 999
REV_AT_EPOCH   = 52573
BSTAR          = .57898E-4
MEAN_MOTION_DOT = .612E-5
MEAN_MOTION_DDOT = 0

CCSDS_OMM_VERS = 2.0
CREATION_DATE  = 
ORIGINATOR     = 

OBJECT_NAME    = SL-8 R/B
OBJECT_ID      = 1979-089B
CENTER_NAME    = EARTH
REF_FRAME      = TEME
TIME_SYSTEM    = UTC
MEAN_ELEMENT_THEORY = SGP/SGP4

EPOCH          = 2026-02-17T11:49:09.879744
MEAN_MOTION    = 14.42338037
ECCENTRICITY   = .0016821
INCLINATION    = 74.0691
RA_OF_ASC_NODE = 128.4315
ARG_OF_PERICENTER = 303.2279
MEAN_ANOMALY   = 56.7264

EPHEMERIS_TYPE = 0
CLASSIFICATION_TYPE = U
NORAD_CAT_ID   = 11574
ELEMENT_SET_NO = 999
REV_AT_EPOCH   = 43319
BSTAR          = .91922E-4
MEAN_MOTION_DOT = .278E-5
MEAN_MOTION_DDOT = 0

CCSDS_OMM_VERS = 2.0
CREATION_DATE  = 
ORIGINATOR     = 

OBJECT_NAME    = SL-14 R/B
OBJECT_ID      = 1980-005B
CENTER_NAME    = EARTH
REF_FRAME      = TEME
TIME_SYSTEM    = UTC
MEAN_ELEMENT_THEORY = SGP/SGP4

EPOCH          = 2026-02-17T06:11:04.784064
MEAN_MOTION    = 14.90903867
ECCENTRICITY   = .0014427
INCLINATION    = 82.5173
RA_OF_ASC_NODE = 326.6125
ARG_OF_PERICENTER = 228.0339
MEAN_ANOMALY   = 131.9652

EPHEMERIS_TYPE = 0
CLASSIFICATION_TYPE = U
NORAD_CAT_ID   = 11672
ELEMENT_SET_NO = 999
REV_AT_EPOCH   = 47344
BSTAR          = .65113E-4
MEAN_MOTION_DOT = .668E-5
MEAN_MOTION_DDOT = 0

CCSDS_OMM_VERS = 2.0
CREATION_DATE  = 
ORIGINATOR     = 

OBJECT_NAME    = SL-8 R/B
OBJECT_ID      = 1981-003B
CENTER_NAME    = EARTH
REF_FRAME      = TEME
TIME_SYSTEM    = UTC
MEAN_ELEMENT_THEORY = SGP/SGP4

EPOCH          = 2026-02-17T04:47:53.155392
MEAN_MOTION    = 15.10213374
ECCENTRICITY   = .0262554
INCLINATION    = 82.9400
RA_OF_ASC_NODE = 308.9587
ARG_OF_PERICENTER = 250.0248
MEAN_ANOMALY   = 107.2536

EPHEMERIS_TYPE = 0
CLASSIFICATION_TYPE = U
NORAD_CAT_ID   = 12139
ELEMENT_SET_NO = 999
REV_AT_EPOCH   = 31158
BSTAR          = .44872E-3
MEAN_MOTION_DOT = .17036E-3
MEAN_MOTION_DDOT = 0

CCSDS_OMM_VERS = 2.0
CREATION_DATE  = 
ORIGINATOR     = 

OBJECT_NAME    = SL-3 R/B
OBJECT_ID      = 1981-046B
CENTER_NAME    = EARTH
REF_FRAME      = TEME
TIME_SYSTEM    = UTC
MEAN_ELEMENT_THEORY = SGP/SGP4

EPOCH          = 2026-02-17T09:42:32.929056
MEAN_MOTION    = 15.41426310
ECCENTRICITY   = .0020782
INCLINATION    = 81.2343
RA_OF_ASC_NODE = 314.0884
ARG_OF_PERICENTER = 89.1942
MEAN_ANOMALY   = 271.1682

EPHEMERIS_TYPE = 0
CLASSIFICATION_TYPE = U
NORAD_CAT_ID   = 12465
ELEMENT_SET_NO = 999
REV_AT_EPOCH   = 43530
BSTAR          = .36017E-3
MEAN_MOTION_DOT = .15216E-3
MEAN_MOTION_DDOT = 0

CCSDS_OMM_VERS = 2.0
CREATION_DATE  = 
ORIGINATOR     = 

OBJECT_NAME    = SL-3 R/B
OBJECT_ID      = 1981-103B
CENTER_NAME    = EARTH
REF_FRAME      = TEME
TIME_SYSTEM    = UTC
MEAN_ELEMENT_THEORY = SGP/SGP4

EPOCH          = 2026-02-17T12:19:00.378912
MEAN_MOTION    = 15.21124079
ECCENTRICITY   = .001323
INCLINATION    = 81.1556
RA_OF_ASC_NODE = 237.0997
ARG_OF_PERICENTER = 357.4184
MEAN_ANOMALY   = 2.6977

EPHEMERIS_TYPE = 0
CLASSIFICATION_TYPE = U
NORAD_CAT_ID   = 12904
ELEMENT_SET_NO = 999
REV_AT_EPOCH   = 97016
BSTAR          = .26377E-3
MEAN_MOTION_DOT = .5907E-4
MEAN_MOTION_DDOT = 0

CCSDS_OMM_VERS = 2.0
CREATION_DATE  = 
ORIGINATOR     = 

OBJECT_NAME    = SL-3 R/B
OBJECT_ID      = 1982-013B
CENTER_NAME    = EARTH
REF_FRAME      = TEME
TIME_SYSTEM    = UTC
MEAN_ELEMENT_THEORY = SGP/SGP4

EPOCH          = 2026-02-17T11:08:22.265376
MEAN_MOTION    = 15.21784471
ECCENTRICITY   = .0021705
INCLINATION    = 81.1754
RA_OF_ASC_NODE = 184.4666
ARG_OF_PERICENTER = 247.0848
MEAN_ANOMALY   = 112.8093

EPHEMERIS_TYPE = 0
CLASSIFICATION_TYPE = U
NORAD_CAT_ID   = 13068
ELEMENT_SET_NO = 999
REV_AT_EPOCH   = 40127
BSTAR          = .25088E-3
MEAN_MOTION_DOT = .5752E-4
MEAN_MOTION_DDOT = 0

CCSDS_OMM_VERS = 2.0
CREATION_DATE  = 
ORIGINATOR     = 

OBJECT_NAME    = SL-3 R/B
OBJECT_ID      = 1982-039B
CENTER_NAME    = EARTH
REF_FRAME      = TEME
TIME_SYSTEM    = UTC
MEAN_ELEMENT_THEORY = SGP/SGP4

EPOCH          = 2026-02-17T12:17:48.278976
MEAN_MOTION    = 15.09963016
ECCENTRICITY   = .0030034
INCLINATION    = 81.1591
RA_OF_ASC_NODE = 239.2214
ARG_OF_PERICENTER = 30.3924
MEAN_ANOMALY   = 329.9034

EPHEMERIS_TYPE = 0
CLASSIFICATION_TYPE = U
NORAD_CAT_ID   = 13154
ELEMENT_SET_NO = 999
REV_AT_EPOCH   = 37859
BSTAR          = .15755E-3
MEAN_MOTION_DOT = .2607E-4
MEAN_MOTION_DDOT = 0

