ATLAS CENTAUR R/B       
1 06155U 72065B   26048.35552111  .00001415  00000+0  19588-3 0  9994
2 06155  35.0017  64.9115 0034016 200.0912 159.8450 14.77625374838253
SL-8 R/B                
1 08459U 75112B   26048.46991147  .00000176  00000+0  66349-4 0  9998
2 08459  74.0592  56.1088 0015037 156.9812 203.2019 14.38192702628966
SL-3 R/B                
1 10114U 77057B   26048.44918897  .00013854  00000+0  29650-3 0  9998
2 10114  97.5736 219.4925 0007365   5.2844 354.8480 15.44891025665202
SEASAT 1                
1 10967U 78064A   26048.02101678  .00000295  00000+0  12101-3 0  9996
2 10967 108.0157  82.1251 0001771 291.9576  68.1381 14.46143736503522
SL-14 R/B               
1 11267U 79011B   26048.25810013  .00000612  00000+0  57898-4 0  9994
2 11267  82.5239 115.9592 0017447 123.1533 237.1364 14.91883434525734
SL-8 R/B                
1 11574U 79089B   26048.49247546  .00000278  00000+0  91922-4 0  9995
2 11574  74.0691 128.4315 0016821 303.2279  56.7264 14.42338037433190
SL-14 R/B               
1 11672U 80005B   26048.25769426  .00000668  00000+0  65113-4 0  9990
2 11672  82.5173 326.6125 0014427 228.0339 131.9652 14.90903867473441
SL-8 R/B                
1 12139U 81003B   26048.19992078  .00017036  00000+0  44872-3 0  9997
2 12139  82.9400 308.9587 0262554 250.0248 107.2536 15.10213374311585
SL-3 R/B                
1 12465U 81046B   26048.40454779  .00015216  00000+0  36017-3 0  9991
2 12465  81.2343 314.0884 0020782  89.1942 271.1682 15.41426310435300
SL-3 R/B                
1 12904U 81103B   26048.51319883  .00005907  00000+0  26377-3 0  9995
2 12904  81.1556 237.0997 0013230 357.4184   2.6977 15.21124079970168
SL-3 R/B                
1 13068U 82013B   26048.46414659  .00005752  00000+0  25088-3 0  9995
2 13068  81.1754 184.4666 0021705 247.0848 112.8093 15.21784471401277
SL-3 R/B                
1 13154U 82039B   26048.51236434  .00002607  00000+0  15755-3 0  9994
2 13154  81.1591 239.2214 0030034  30.3924 329.9034 15.09963016378597
